{"type": "FeatureCollection", "features": [ {"type": "Feature", "properties": {"norad_id": 34079, "name": "IRIDIUM 33 DEB", "group": "iridium-33-debris", "lat": -5.034587469551238, "lon": -177.7630960123624, "alt_km": 622.1226119770135, "timestamp": "2025-12-27T13:34:49.680543+00:00", "meta": {"OBJECT_NAME": "IRIDIUM 33 DEB", "OBJECT_ID": "1997-051CN", "EPOCH": "2025-12-27T06:20:21.475680", "MEAN_MOTION": 14.83933448, "ECCENTRICITY": 0.00036894, "INCLINATION": 86.3777, "RA_OF_ASC_NODE": 2.0544, "ARG_OF_PERICENTER": 310.6611, "MEAN_ANOMALY": 63.5436, "EPHEMERIS_TYPE": 0, "CLASSIFICATION_TYPE": "U", "NORAD_CAT_ID": 34079, "ELEMENT_SET_NO": 999, "REV_AT_EPOCH": 89193, "BSTAR": 0.0021800148, "MEAN_MOTION_DOT": 0.00018168, "MEAN_MOTION_DDOT": 0}, "tle": {"line1": "1 34079U 97051CN  25361.26413745  .00018168  00000+0  21800-2 0  9990", "line2": "2 34079  86.3777   2.0544 0003689 310.6611  63.5436 14.83933448891936"}}, "geometry": {"type": "Point", "coordinates": [-177.7630960123624, -5.034587469551238]}}, {"type": "Feature", "properties": {"norad_id": 34088, "name": "IRIDIUM 33 DEB", "group": "iridium-33-debris", "lat": -17.856108764029596, "lon": 22.740031921551303, "alt_km": 600.9075601931272, "timestamp": "2025-12-27T13:34:49.680554+00:00", "meta": {"OBJECT_NAME": "IRIDIUM 33 DEB", "OBJECT_ID": "1997-051CX", "EPOCH": "2025-12-27T02:38:55.251744", "MEAN_MOTION": 14.92046916, "ECCENTRICITY": 0.00072155, "INCLINATION": 86.3846, "RA_OF_ASC_NODE": 24.1166, "ARG_OF_PERICENTER": 132.7862, "MEAN_ANOMALY": 284.4811, "EPHEMERIS_TYPE": 0, "CLASSIFICATION_TYPE": "U", "NORAD_CAT_ID": 34088, "ELEMENT_SET_NO": 999, "REV_AT_EPOCH": 88956, "BSTAR": 0.0029255965, "MEAN_MOTION_DOT": 0.0002981, "MEAN_MOTION_DDOT": 0}, "tle": {"line1": "1 34088U 97051CX  25361.11036171  .00029810  00000+0  29256-2 0  9997", "line2": "2 34088  86.3846  24.1166 0007215 132.7862 284.4811 14.92046916889560"}}, "geometry": {"type": "Point", "coordinates": [22.740031921551303, -17.856108764029596]}}, {"type": "Feature", "properties": {"norad_id": 34091, "name": "IRIDIUM 33 DEB", "group": "iridium-33-debris", "lat": 29.330022497715746, "lon": 62.098653622225996, "alt_km": 639.3718939781111, "timestamp": "2025-12-27T13:34:49.680564+00:00", "meta": {"OBJECT_NAME": "IRIDIUM 33 DEB", "OBJECT_ID": "1997-051DA", "EPOCH": "2025-12-27T03:43:50.479104", "MEAN_MOTION": 14.82901423, "ECCENTRICITY": 0.00343023, "INCLINATION": 86.3407, "RA_OF_ASC_NODE": 60.2263, "ARG_OF_PERICENTER": 241.6734, "MEAN_ANOMALY": 118.1028, "EPHEMERIS_TYPE": 0, "CLASSIFICATION_TYPE": "U", "NORAD_CAT_ID": 34091, "ELEMENT_SET_NO": 999, "REV_AT_EPOCH": 88080, "BSTAR": 0.0057592703, "MEAN_MOTION_DOT": 0.00047447, "MEAN_MOTION_DDOT": 0}, "tle": {"line1": "1 34091U 97051DA  25361.15544536  .00047447  00000+0  57593-2 0  9995", "line2": "2 34091  86.3407  60.2263 0034302 241.6734 118.1028 14.82901423880804"}}, "geometry": {"type": "Point", "coordinates": [62.098653622225996, 29.330022497715746]}}, {"type": "Feature", "properties": {"norad_id": 34097, "name": "IRIDIUM 33 DEB", "group": "iridium-33-debris", "lat": -83.12784835209841, "lon": -151.67863622666053, "alt_km": 744.7101013085767, "timestamp": "2025-12-27T13:34:49.680574+00:00", "meta": {"OBJECT_NAME": "IRIDIUM 33 DEB", "OBJECT_ID": "1997-051DG", "EPOCH": "2025-12-26T22:57:25.330752", "MEAN_MOTION": 14.34897502, "ECCENTRICITY": 0.0081165, "INCLINATION": 86.2009, "RA_OF_ASC_NODE": 355.1315, "ARG_OF_PERICENTER": 315.5596, "MEAN_ANOMALY": 43.9106, "EPHEMERIS_TYPE": 0, "CLASSIFICATION_TYPE": "U", "NORAD_CAT_ID": 34097, "ELEMENT_SET_NO": 999, "REV_AT_EPOCH": 87323, "BSTAR": 0.0019362, "MEAN_MOTION_DOT": 5.728e-05, "MEAN_MOTION_DDOT": 0}, "tle": {"line1": "1 34097U 97051DG  25360.95654318  .00005728  00000+0  19362-2 0  9996", "line2": "2 34097  86.2009 355.1315 0081165 315.5596  43.9106 14.34897502873237"}}, "geometry": {"type": "Point", "coordinates": [-151.67863622666053, -83.12784835209841]}}, {"type": "Feature", "properties": {"norad_id": 34145, "name": "IRIDIUM 33 DEB", "group": "iridium-33-debris", "lat": -34.39137135668367, "lon": 148.52221720745897, "alt_km": 795.4268223311738, "timestamp": "2025-12-27T13:34:49.680585+00:00", "meta": {"OBJECT_NAME": "IRIDIUM 33 DEB", "OBJECT_ID": "1997-051DY", "EPOCH": "2025-12-27T02:36:09.706752", "MEAN_MOTION": 14.42400271, "ECCENTRICITY": 0.00553768, "INCLINATION": 86.2127, "RA_OF_ASC_NODE": 326.1271, "ARG_OF_PERICENTER": 48.2173, "MEAN_ANOMALY": 312.3739, "EPHEMERIS_TYPE": 0, "CLASSIFICATION_TYPE": "U", "NORAD_CAT_ID": 34145, "ELEMENT_SET_NO": 999, "REV_AT_EPOCH": 87845, "BSTAR": 0.0016357718, "MEAN_MOTION_DOT": 5.529e-05, "MEAN_MOTION_DDOT": 0}, "tle": {"line1": "1 34145U 97051DY  25361.10844568  .00005529  00000+0  16358-2 0  9997", "line2": "2 34145  86.2127 326.1271 0055376  48.2173 312.3739 14.42400271878453"}}, "geometry": {"type": "Point", "coordinates": [148.52221720745897, -34.39137135668367]}}, {"type": "Feature", "properties": {"norad_id": 34146, "name": "IRIDIUM 33 DEB", "group": "iridium-33-debris", "lat": -32.07790527272261, "lon": 165.58457823886397, "alt_km": 720.1382179097918, "timestamp": "2025-12-27T13:34:49.680595+00:00", "meta": {"OBJECT_NAME": "IRIDIUM 33 DEB", "OBJECT_ID": "1997-051DZ", "EPOCH": "2025-12-26T05:10:53.931072", "MEAN_MOTION": 14.49135058, "ECCENTRICITY": 0.0027049, "INCLINATION": 86.2845, "RA_OF_ASC_NODE": 343.8464, "ARG_OF_PERICENTER": 175.3009, "MEAN_ANOMALY": 198.4852, "EPHEMERIS_TYPE": 0, "CLASSIFICATION_TYPE": "U", "NORAD_CAT_ID": 34146, "ELEMENT_SET_NO": 999, "REV_AT_EPOCH": 88302, "BSTAR": 0.00092782, "MEAN_MOTION_DOT": 3.563e-05, "MEAN_MOTION_DDOT": 0}, "tle": {"line1": "1 34146U 97051DZ  25360.21590198  .00003563  00000+0  92782-3 0  9998", "line2": "2 34146  86.2845 343.8464 0027049 175.3009 198.4852 14.49135058883020"}}, "geometry": {"type": "Point", "coordinates": [165.58457823886397, -32.07790527272261]}}, {"type": "Feature", "properties": {"norad_id": 34159, "name": "IRIDIUM 33 DEB", "group": "iridium-33-debris", "lat": 81.57606877739957, "lon": 67.45888044179277, "alt_km": 772.7406848425544, "timestamp": "2025-12-27T13:34:49.680605+00:00", "meta": {"OBJECT_NAME": "IRIDIUM 33 DEB", "OBJECT_ID": "1997-051EN", "EPOCH": "2025-12-27T03:10:49.605312", "MEAN_MOTION": 14.38529458, "ECCENTRICITY": 0.00263075, "INCLINATION": 86.3489, "RA_OF_ASC_NODE": 42.1028, "ARG_OF_PERICENTER": 236.8927, "MEAN_ANOMALY": 122.9746, "EPHEMERIS_TYPE": 0, "CLASSIFICATION_TYPE": "U", "NORAD_CAT_ID": 34159, "ELEMENT_SET_NO": 999, "REV_AT_EPOCH": 88166, "BSTAR": 0.0004478547, "MEAN_MOTION_DOT": 1.393e-05, "MEAN_MOTION_DDOT": 0}, "tle": {"line1": "1 34159U 97051EN  25361.13251858  .00001393  00000+0  44785-3 0  9990", "line2": "2 34159  86.3489  42.1028 0026307 236.8927 122.9746 14.38529458881663"}}, "geometry": {"type": "Point", "coordinates": [67.45888044179277, 81.57606877739957]}}, {"type": "Feature", "properties": {"norad_id": 34350, "name": "IRIDIUM 33 DEB", "group": "iridium-33-debris", "lat": 60.93955422360057, "lon": 169.73594384698535, "alt_km": 720.1734121367663, "timestamp": "2025-12-27T13:34:49.680616+00:00", "meta": {"OBJECT_NAME": "IRIDIUM 33 DEB", "OBJECT_ID": "1997-051ES", "EPOCH": "2025-12-26T11:11:35.511072", "MEAN_MOTION": 14.45418943, "ECCENTRICITY": 0.0023531, "INCLINATION": 86.3274, "RA_OF_ASC_NODE": 356.8502, "ARG_OF_PERICENTER": 93.2383, "MEAN_ANOMALY": 67.9711, "EPHEMERIS_TYPE": 0, "CLASSIFICATION_TYPE": "U", "NORAD_CAT_ID": 34350, "ELEMENT_SET_NO": 999, "REV_AT_EPOCH": 88491, "BSTAR": 0.00036255, "MEAN_MOTION_DOT": 1.3e-05, "MEAN_MOTION_DDOT": 0}, "tle": {"line1": "1 34350U 97051ES  25360.46638323  .00001300  00000+0  36255-3 0  9995", "line2": "2 34350  86.3274 356.8502 0023531  93.2383  67.9711 14.45418943884912"}}, "geometry": {"type": "Point", "coordinates": [169.73594384698535, 60.93955422360057]}}, {"type": "Feature", "properties": {"norad_id": 34366, "name": "IRIDIUM 33 DEB", "group": "iridium-33-debris", "lat": -11.182001651675233, "lon": -136.41755216872605, "alt_km": 718.5379925031584, "timestamp": "2025-12-27T13:34:49.680626+00:00", "meta": {"OBJECT_NAME": "IRIDIUM 33 DEB", "OBJECT_ID": "1997-051FJ", "EPOCH": "2025-12-27T04:46:07.017312", "MEAN_MOTION": 14.54168499, "ECCENTRICITY": 0.00230305, "INCLINATION": 86.3682, "RA_OF_ASC_NODE": 43.0228, "ARG_OF_PERICENTER": 94.9118, "MEAN_ANOMALY": 335.0579, "EPHEMERIS_TYPE": 0, "CLASSIFICATION_TYPE": "U", "NORAD_CAT_ID": 34366, "ELEMENT_SET_NO": 999, "REV_AT_EPOCH": 88392, "BSTAR": 0.0010580531, "MEAN_MOTION_DOT": 4.511e-05, "MEAN_MOTION_DDOT": 0}, "tle": {"line1": "1 34366U 97051FJ  25361.19869233  .00004511  00000+0  10581-2 0  9999", "line2": "2 34366  86.3682  43.0228 0023030  94.9118 335.0579 14.54168499883929"}}, "geometry": {"type": "Point", "coordinates": [-136.41755216872605, -11.182001651675233]}}, {"type": "Feature", "properties": {"norad_id": 34375, "name": "IRIDIUM 33 DEB", "group": "iridium-33-debris", "lat": -19.752479173485, "lon": 175.44184021946893, "alt_km": 849.521338657144, "timestamp": "2025-12-27T13:34:49.680637+00:00", "meta": {"OBJECT_NAME": "IRIDIUM 33 DEB", "OBJECT_ID": "1997-051FT", "EPOCH": "2025-12-26T23:01:44.485824", "MEAN_MOTION": 14.1801844, "ECCENTRICITY": 0.0103676, "INCLINATION": 86.4324, "RA_OF_ASC_NODE": 176.9699, "ARG_OF_PERICENTER": 82.2682, "MEAN_ANOMALY": 46.0207, "EPHEMERIS_TYPE": 0, "CLASSIFICATION_TYPE": "U", "NORAD_CAT_ID": 34375, "ELEMENT_SET_NO": 999, "REV_AT_EPOCH": 86913, "BSTAR": 0.00046621, "MEAN_MOTION_DOT": 1.026e-05, "MEAN_MOTION_DDOT": 0}, "tle": {"line1": "1 34375U 97051FT  25360.95954266  .00001026  00000+0  46621-3 0  9996", "line2": "2 34375  86.4324 176.9699 0103676  82.2682  46.0207 14.18018440869136"}}, "geometry": {"type": "Point", "coordinates": [175.44184021946893, -19.752479173485]}}]}